COMMENT,ORIGINATOR,NORAD_CAT_ID,OBJECT_NAME,OBJECT_TYPE,CLASSIFICATION_TYPE,INTLDES,EPOCH,EPOCH_MICROSECONDS,MEAN_MOTION,ECCENTRICITY,INCLINATION,RA_OF_ASC_NODE,ARG_OF_PERICENTER,MEAN_ANOMALY,EPHEMERIS_TYPE,ELEMENT_SET_NO,REV_AT_EPOCH,BSTAR,MEAN_MOTION_DOT,MEAN_MOTION_DDOT,FILE,TLE_LINE0,TLE_LINE1,TLE_LINE2,OBJECT_ID,OBJECT_NUMBER,SEMIMAJOR_AXIS,PERIOD,APOGEE,PERIGEE,DECAYED
"GENERATED VIA SPACETRACK.ORG API","18 SPCS","47950","OBJECT U","TBA","U","21022U","2021-09-10 15:35:15","116064","15.05840623","0.0022919","97.5473","154.0183","26.7208","31.9765","0","999","2587","0.000084663","0.00001173","0","3112362","0 OBJECT U","1 47950U 21022U   21253.64948051  .00001173  00000-0  84663-4 0  9995","2 47950  97.5473 154.0183 0022919  26.7208  31.9765 15.05840623 25879","2021-022U","47950","6927.063","95.628","564.805","533.052","0"
"GENERATED VIA SPACETRACK.ORG API","18 SPCS","47950","OBJECT U","TBA","U","21022U","2021-09-10 18:49:58","790208","15.05841022","0.0022903","97.5471","154.1506","26.3414","44.9689","0","999","2589","0.000084948","0.00001177","0","3112723","0 OBJECT U","1 47950U 21022U   21253.78470822  .00001177  00000-0  84948-4 0  9996","2 47950  97.5471 154.1506 0022903  26.3414  44.9689 15.05841022 25890","2021-022U","47950","6927.062","95.628","564.792","533.062","0"
"GENERATED VIA SPACETRACK.ORG API","18 SPCS","47950","OBJECT U","TBA","U","21022U","2021-09-10 18:49:58","790208","15.05841022","0.0022903","97.5471","154.1506","26.3414","44.9689","0","999","2589","0.000084948","0.00001177","0","3112758","0 OBJECT U","1 47950U 21022U   21253.78470822  .00001177  00000-0  84948-4 0  9996","2 47950  97.5471 154.1506 0022903  26.3414  44.9689 15.05841022 25890","2021-022U","47950","6927.062","95.628","564.792","533.062","0"
"GENERATED VIA SPACETRACK.ORG API","18 SPCS","47950","OBJECT U","TBA","U","21022U","2021-09-11 03:07:11","187840","15.05841745","0.00229","97.547","154.4885","25.2214","116.6974","0","999","2594","0.000083551","0.00001157","0","3112952","0 OBJECT U","1 47950U 21022U   21254.12999060  .00001157  00000-0  83551-4 0  9992","2 47950  97.5470 154.4885 0022900  25.2214 116.6974 15.05841745 25947","2021-022U","47950","6927.060","95.628","564.788","533.062","0"
"GENERATED VIA SPACETRACK.ORG API","18 SPCS","47950","OBJECT U","TBA","U","21022U","2021-09-11 12:01:30","999936","15.05842391","0.0022889","97.5469","154.8514","23.9274","328.2668","0","999","2599","0.000081788","0.00001131","0","3113146","0 OBJECT U","1 47950U 21022U   21254.50105324  .00001131  00000-0  81788-4 0  9998","2 47950  97.5469 154.8514 0022889  23.9274 328.2668 15.05842391 25999","2021-022U","47950","6927.058","95.628","564.778","533.068","0"
"GENERATED VIA SPACETRACK.ORG API","18 SPCS","47950","OBJECT U","TBA","U","21022U","2021-09-11 12:01:30","999936","15.05842391","0.0022889","97.5469","154.8514","23.9274","328.2668","0","999","2599","0.000081788","0.00001131","0","3113181","0 OBJECT U","1 47950U 21022U   21254.50105324  .00001131  00000-0  81788-4 0  9998","2 47950  97.5469 154.8514 0022889  23.9274 328.2668 15.05842391 25999","2021-022U","47950","6927.058","95.628","564.778","533.068","0"
"GENERATED VIA SPACETRACK.ORG API","18 SPCS","47950","OBJECT U","TBA","U","21022U","2021-09-11 18:45:23","467968","15.05843197","0.002284","97.5464","155.1258","23.1416","48.5264","0","999","2604","0.000082918","0.00001148","0","3113346","0 OBJECT U","1 47950U 21022U   21254.78152162  .00001148  00000-0  82918-4 0  9994","2 47950  97.5464 155.1258 0022840  23.1416  48.5264 15.05843197 26046","2021-022U","47950","6927.056","95.627","564.742","533.099","0"
"GENERATED VIA SPACETRACK.ORG API","18 SPCS","47950","OBJECT U","TBA","U","21022U","2021-09-11 18:45:23","467968","15.05843197","0.002284","97.5464","155.1258","23.1416","48.5264","0","999","2604","0.000082918","0.00001148","0","3113379","0 OBJECT U","1 47950U 21022U   21254.78152162  .00001148  00000-0  82918-4 0  9994","2 47950  97.5464 155.1258 0022840  23.1416  48.5264 15.05843197 26046","2021-022U","47950","6927.056","95.627","564.742","533.099","0"
"GENERATED VIA SPACETRACK.ORG API","18 SPCS","47950","OBJECT U","TBA","U","21022U","2021-09-12 06:07:30","9216","15.05844134","0.0022824","97.5463","155.5893","21.5836","96.3428","0","999","2611","0.000081034","0.0000112","0","3113651","0 OBJECT U","1 47950U 21022U   21255.25520844  .00001120  00000-0  81034-4 0  9991","2 47950  97.5463 155.5893 0022824  21.5836  96.3428 15.05844134 26117","2021-022U","47950","6927.053","95.627","564.728","533.107","0"
"GENERATED VIA SPACETRACK.ORG API","18 SPCS","47950","OBJECT U","TBA","U","21022U","2021-09-12 13:47:50","697312","15.05844611","0.0022802","97.5463","155.902","20.5314","29.3223","0","999","2616","0.000079317","0.00001095","0","3113903","0 OBJECT U","1 47950U 21022U   21255.57489233  .00001095  00000-0  79317-4 0  9994","2 47950  97.5463 155.9020 0022802  20.5314  29.3223 15.05844611 26163","2021-022U","47950","6927.051","95.627","564.711","533.121","0"
"GENERATED VIA SPACETRACK.ORG API","18 SPCS","47950","OBJECT U","TBA","U","21022U","2021-09-12 13:47:50","697312","15.05844611","0.0022802","97.5463","155.902","20.5314","29.3223","0","999","2616","0.000079317","0.00001095","0","3114003","0 OBJECT U","1 47950U 21022U   21255.57489233  .00001095  00000-0  79317-4 0  9994","2 47950  97.5463 155.9020 0022802  20.5314  29.3223 15.05844611 26163","2021-022U","47950","6927.051","95.627","564.711","533.121","0"
"GENERATED VIA SPACETRACK.ORG API","18 SPCS","47950","OBJECT U","TBA","U","21022U","2021-09-12 21:50:25","329696","15.05845415","0.0022819","97.5462","156.2301","19.3596","46.068","0","999","2621","0.00007942","0.00001097","0","3114191","0 OBJECT U","1 47950U 21022U   21255.91001539  .00001097  00000-0  79420-4 0  9998","2 47950  97.5462 156.2301 0022819  19.3596  46.0680 15.05845415 26216","2021-022U","47950","6927.049","95.627","564.721","533.107","0"
"GENERATED VIA SPACETRACK.ORG API","18 SPCS","47950","OBJECT U","TBA","U","21022U","2021-09-12 21:50:25","329696","15.05845415","0.0022819","97.5462","156.2301","19.3596","46.068","0","999","2621","0.00007942","0.00001097","0","3114195","0 OBJECT U","1 47950U 21022U   21255.91001539  .00001097  00000-0  79420-4 0  9998","2 47950  97.5462 156.2301 0022819  19.3596  46.0680 15.05845415 26216","2021-022U","47950","6927.049","95.627","564.721","533.107","0"
"GENERATED VIA SPACETRACK.ORG API","18 SPCS","47950","OBJECT U","TBA","U","21022U","2021-09-13 04:36:15","416640","15.05845883","0.0022788","97.5459","156.5059","18.4286","133.8489","0","999","2625","0.000077736","0.00001072","0","3114372","0 OBJECT U","1 47950U 21022U   21256.19184510  .00001072  00000-0  77736-4 0  9991","2 47950  97.5459 156.5059 0022788  18.4286 133.8489 15.05845883 26251","2021-022U","47950","6927.047","95.627","564.698","533.127","0"
"GENERATED VIA SPACETRACK.ORG API","18 SPCS","47950","OBJECT U","TBA","U","21022U","2021-09-13 12:27:30","252096","15.05846215","0.0022753","97.5457","156.8258","17.292","107.9319","0","999","2630","0.000074738","0.00001028","0","3114723","0 OBJECT U","1 47950U 21022U   21256.51910014  .00001028  00000-0  74738-4 0  9993","2 47950  97.5457 156.8258 0022753  17.2920 107.9319 15.05846215 26307","2021-022U","47950","6927.046","95.627","564.672","533.150","0"
"GENERATED VIA SPACETRACK.ORG API","18 SPCS","47950","OBJECT U","TBA","U","21022U","2021-09-13 12:27:30","252096","15.05846215","0.0022753","97.5457","156.8258","17.292","107.9319","0","999","2630","0.000074738","0.00001028","0","3114796","0 OBJECT U","1 47950U 21022U   21256.51910014  .00001028  00000-0  74738-4 0  9993","2 47950  97.5457 156.8258 0022753  17.2920 107.9319 15.05846215 26307","2021-022U","47950","6927.046","95.627","564.672","533.150","0"
"GENERATED VIA SPACETRACK.ORG API","18 SPCS","47950","OBJECT U","TBA","U","21022U","2021-09-13 20:13:55","182720","15.05846867","0.0022695","97.5452","157.1426","16.2846","63.7111","0","999","2635","0.000074083","0.00001019","0","3114982","0 OBJECT U","1 47950U 21022U   21256.84299980  .00001019  00000-0  74083-4 0  9994","2 47950  97.5452 157.1426 0022695  16.2846  63.7111 15.05846867 26351","2021-022U","47950","6927.044","95.627","564.630","533.188","0"
"GENERATED VIA SPACETRACK.ORG API","18 SPCS","47950","OBJECT U","TBA","U","21022U","2021-09-13 20:13:55","182720","15.05846867","0.0022695","97.5452","157.1426","16.2846","63.7111","0","999","2635","0.000074083","0.00001019","0","3115005","0 OBJECT U","1 47950U 21022U   21256.84299980  .00001019  00000-0  74083-4 0  9994","2 47950  97.5452 157.1426 0022695  16.2846  63.7111 15.05846867 26351","2021-022U","47950","6927.044","95.627","564.630","533.188","0"
"GENERATED VIA SPACETRACK.ORG API","18 SPCS","47950","OBJECT U","TBA","U","21022U","2021-09-14 05:57:36","42048","15.05847366","0.0022662","97.5449","157.5391","14.8689","101.0789","0","999","2641","0.000071006","0.00000974","0","3115195","0 OBJECT U","1 47950U 21022U   21257.24833382  .00000974  00000-0  71006-4 0  9990","2 47950  97.5449 157.5391 0022662  14.8689 101.0789 15.05847366 26414","2021-022U","47950","6927.043","95.627","564.606","533.210","0"
"GENERATED VIA SPACETRACK.ORG API","18 SPCS","47950","OBJECT U","TBA","U","21022U","2021-09-14 12:17:07","3968","15.05847636","0.0022702","97.5449","157.7972","13.7985","89.9815","0","999","2645","0.000068942","0.00000944","0","3115454","0 OBJECT U","1 47950U 21022U   21257.51188662  .00000944  00000-0  68942-4 0  9996","2 47950  97.5449 157.7972 0022702  13.7985  89.9815 15.05847636 26451","2021-022U","47950","6927.042","95.627","564.633","533.181","0"
